SUOMI-100               
1 43804U 18099AY  26068.68271181  .00014037  00000+0  54773-3 0  9995
2 43804  97.4315 129.5602 0008969 269.9465  90.0745 15.25995383398238
STARLINK-30842          
1 58357U 23177G   26068.06814281  .00014531  00000+0  59008-3 0  9998
2 58357  42.9998 339.3436 0001353 241.6779 118.3935 15.24412214128300
